[{"OBJECT_NAME":"STARLINK-36799","OBJECT_ID":"2026-037AC","EPOCH":"2026-03-05T14:00:01.999872","MEAN_MOTION":15.95242489,"ECCENTRICITY":0.00015179,"INCLINATION":42.9995,"RA_OF_ASC_NODE":223.7165,"ARG_OF_PERICENTER":276.4645,"MEAN_ANOMALY":350.4138,"EPHEMERIS_TYPE":0,"CLASSIFICATION_TYPE":"U","NORAD_CAT_ID":67958,"ELEMENT_SET_NO":999,"REV_AT_EPOCH":253,"BSTAR":-0.0037221411,"MEAN_MOTION_DOT":-0.01515587,"MEAN_MOTION_DDOT":0.00066777037},{"OBJECT_NAME":"STARLINK-36834","OBJECT_ID":"2026-037AD","EPOCH":"2026-03-05T14:00:01.999872","MEAN_MOTION":15.95491398,"ECCENTRICITY":0.00013787,"INCLINATION":42.9996,"RA_OF_ASC_NODE":223.7018,"ARG_OF_PERICENTER":269.2854,"MEAN_ANOMALY":3.2129,"EPHEMERIS_TYPE":0,"CLASSIFICATION_TYPE":"U","NORAD_CAT_ID":67959,"ELEMENT_SET_NO":999,"REV_AT_EPOCH":253,"BSTAR":-0.0037148608,"MEAN_MOTION_DOT":-0.01532899,"MEAN_MOTION_DDOT":0.00068358264},{"OBJECT_NAME":"STARLINK-36841","OBJECT_ID":"2026-037AE","EPOCH":"2026-03-05T14:00:01.999872","MEAN_MOTION":15.95378069,"ECCENTRICITY":0.00012928,"INCLINATION":42.9995,"RA_OF_ASC_NODE":223.7093,"ARG_OF_PERICENTER":270.54,"MEAN_ANOMALY":358.9949,"EPHEMERIS_TYPE":0,"CLASSIFICATION_TYPE":"U","NORAD_CAT_ID":67960,"ELEMENT_SET_NO":999,"REV_AT_EPOCH":253,"BSTAR":-0.0037443311,"MEAN_MOTION_DOT":-0.01535547,"MEAN_MOTION_DDOT":0.00068496821},{"OBJECT_NAME":"STARLINK-36912","OBJECT_ID":"2026-038A","EPOCH":"2026-03-05T14:00:01.999872","MEAN_MOTION":16.00482368,"ECCENTRICITY":0.00012564,"INCLINATION":97.2764,"RA_OF_ASC_NODE":74.5366,"ARG_OF_PERICENTER":102.8926,"MEAN_ANOMALY":139.7936,"EPHEMERIS_TYPE":0,"CLASSIFICATION_TYPE":"U","NORAD_CAT_ID":67961,"ELEMENT_SET_NO":999,"REV_AT_EPOCH":253,"BSTAR":-0.0029155578,"MEAN_MOTION_DOT":-0.01507359,"MEAN_MOTION_DDOT":0.00070448511},{"OBJECT_NAME":"STARLINK-36881","OBJECT_ID":"2026-038B","EPOCH":"2026-03-05T14:00:01.999872","MEAN_MOTION":16.00556873,"ECCENTRICITY":0.00012215,"INCLINATION":97.2763,"RA_OF_ASC_NODE":74.5373,"ARG_OF_PERICENTER":110.0359,"MEAN_ANOMALY":134.4767,"EPHEMERIS_TYPE":0,"CLASSIFICATION_TYPE":"U","NORAD_CAT_ID":67962,"ELEMENT_SET_NO":999,"REV_AT_EPOCH":253,"BSTAR":-0.0028923305,"MEAN_MOTION_DOT":-0.01501756,"MEAN_MOTION_DDOT":0.00070021869},{"OBJECT_NAME":"STARLINK-36357","OBJECT_ID":"2026-038C","EPOCH":"2026-03-05T14:00:01.999872","MEAN_MOTION":16.00799222,"ECCENTRICITY":0.00012293,"INCLINATION":97.276,"RA_OF_ASC_NODE":74.5395,"ARG_OF_PERICENTER":108.1029,"MEAN_ANOMALY":141.223,"EPHEMERIS_TYPE":0,"CLASSIFICATION_TYPE":"U","NORAD_CAT_ID":67963,"ELEMENT_SET_NO":999,"REV_AT_EPOCH":253,"BSTAR":-0.0028620886,"MEAN_MOTION_DOT":-0.01506657,"MEAN_MOTION_DDOT":0.00070641338},{"OBJECT_NAME":"STARLINK-36349","OBJECT_ID":"2026-038D","EPOCH":"2026-03-05T14:00:01.999872","MEAN_MOTION":16.00685239,"ECCENTRICITY":0.00012835,"INCLINATION":97.2758,"RA_OF_ASC_NODE":74.538,"ARG_OF_PERICENTER":109.4469,"MEAN_ANOMALY":137.4673,"EPHEMERIS_TYPE":0,"CLASSIFICATION_TYPE":"U","NORAD_CAT_ID":67964,"ELEMENT_SET_NO":999,"REV_AT_EPOCH":253,"BSTAR":-0.0028963162,"MEAN_MOTION_DOT":-0.01514715,"MEAN_MOTION_DDOT":0.00071252296},{"OBJECT_NAME":"STARLINK-36806","OBJECT_ID":"2026-038E","EPOCH":"2026-03-05T14:00:01.999872","MEAN_MOTION":16.00936039,"ECCENTRICITY":0.00012019,"INCLINATION":97.2755,"RA_OF_ASC_NODE":74.5404,"ARG_OF_PERICENTER":104.8045,"MEAN_ANOMALY":147.31,"EPHEMERIS_TYPE":0,"CLASSIFICATION_TYPE":"U","NORAD_CAT_ID":67965,"ELEMENT_SET_NO":999,"REV_AT_EPOCH":253,"BSTAR":-0.0028406606,"MEAN_MOTION_DOT":-0.01507096,"MEAN_MOTION_DDOT":0.00070789962},{"OBJECT_NAME":"STARLINK-36820","OBJECT_ID":"2026-038F","EPOCH":"2026-03-05T14:00:01.999872","MEAN_MOTION":16.01043604,"ECCENTRICITY":0.00011788,"INCLINATION":97.2755,"RA_OF_ASC_NODE":74.5416,"ARG_OF_PERICENTER":109.2651,"MEAN_ANOMALY":145.1928,"EPHEMERIS_TYPE":0,"CLASSIFICATION_TYPE":"U","NORAD_CAT_ID":67966,"ELEMENT_SET_NO":999,"REV_AT_EPOCH":253,"BSTAR":-0.0027944132,"MEAN_MOTION_DOT":-0.01491882,"MEAN_MOTION_DDOT":0.00069553637},{"OBJECT_NAME":"STARLINK-36819","OBJECT_ID":"2026-038G","EPOCH":"2026-03-05T14:00:01.999872","MEAN_MOTION":16.01170979,"ECCENTRICITY":0.00012452,"INCLINATION":97.2754,"RA_OF_ASC_NODE":74.5426,"ARG_OF_PERICENTER":102.3354,"MEAN_ANOMALY":154.6383,"EPHEMERIS_TYPE":0,"CLASSIFICATION_TYPE":"U","NORAD_CAT_ID":67967,"ELEMENT_SET_NO":999,"REV_AT_EPOCH":253,"BSTAR":-0.0027844754,"MEAN_MOTION_DOT":-0.01497413,"MEAN_MOTION_DDOT":0.00070135549},{"OBJECT_NAME":"STARLINK-36812","OBJECT_ID":"2026-038H","EPOCH":"2026-03-05T14:00:01.999872","MEAN_MOTION":16.01273422,"ECCENTRICITY":0.0001185,"INCLINATION":97.275,"RA_OF_ASC_NODE":74.5432,"ARG_OF_PERICENTER":100.8873,"MEAN_ANOMALY":158.2576,"EPHEMERIS_TYPE":0,"CLASSIFICATION_TYPE":"U","NORAD_CAT_ID":67968,"ELEMENT_SET_NO":999,"REV_AT_EPOCH":253,"BSTAR":-0.002761859,"MEAN_MOTION_DOT":-0.01494032,"MEAN_MOTION_DDOT":0.00069923741},{"OBJECT_NAME":"STARLINK-36709","OBJECT_ID":"2026-038J","EPOCH":"2026-03-05T14:00:01.999872","MEAN_MOTION":16.01523119,"ECCENTRICITY":0.00011467,"INCLINATION":97.275,"RA_OF_ASC_NODE":74.5454,"ARG_OF_PERICENTER":98.3078,"MEAN_ANOMALY":165.9844,"EPHEMERIS_TYPE":0,"CLASSIFICATION_TYPE":"U","NORAD_CAT_ID":67969,"ELEMENT_SET_NO":999,"REV_AT_EPOCH":253,"BSTAR":-0.0027017285,"MEAN_MOTION_DOT":-0.01482764,"MEAN_MOTION_DDOT":0.00069145526},{"OBJECT_NAME":"STARLINK-36319","OBJECT_ID":"2026-038K","EPOCH":"2026-03-05T14:00:01.999872","MEAN_MOTION":16.01395731,"ECCENTRICITY":0.00012165,"INCLINATION":97.275,"RA_OF_ASC_NODE":74.5443,"ARG_OF_PERICENTER":93.5253,"MEAN_ANOMALY":168.1741,"EPHEMERIS_TYPE":0,"CLASSIFICATION_TYPE":"U","NORAD_CAT_ID":67970,"ELEMENT_SET_NO":999,"REV_AT_EPOCH":250,"BSTAR":-0.0027240336,"MEAN_MOTION_DOT":-0.01484085,"MEAN_MOTION_DDOT":0.00069158771},{"OBJECT_NAME":"STARLINK-36710","OBJECT_ID":"2026-038L","EPOCH":"2026-03-05T14:00:01.999872","MEAN_MOTION":16.01666932,"ECCENTRICITY":0.00010906,"INCLINATION":97.2748,"RA_OF_ASC_NODE":74.547,"ARG_OF_PERICENTER":108.3957,"MEAN_ANOMALY":159.0386,"EPHEMERIS_TYPE":0,"CLASSIFICATION_TYPE":"U","NORAD_CAT_ID":67971,"ELEMENT_SET_NO":999,"REV_AT_EPOCH":253,"BSTAR":-0.0026353014,"MEAN_MOTION_DOT":-0.01458616,"MEAN_MOTION_DDOT":0.00067180432},{"OBJECT_NAME":"STARLINK-36894","OBJECT_ID":"2026-038M","EPOCH":"2026-03-05T14:00:01.999872","MEAN_MOTION":16.01807307,"ECCENTRICITY":0.00011734,"INCLINATION":97.2744,"RA_OF_ASC_NODE":74.5481,"ARG_OF_PERICENTER":90.8869,"MEAN_ANOMALY":179.1282,"EPHEMERIS_TYPE":0,"CLASSIFICATION_TYPE":"U","NORAD_CAT_ID":67972,"ELEMENT_SET_NO":999,"REV_AT_EPOCH":253,"BSTAR":-0.002639332,"MEAN_MOTION_DOT":-0.01472591,"MEAN_MOTION_DDOT":0.0006849142},{"OBJECT_NAME":"STARLINK-36900","OBJECT_ID":"2026-038N","EPOCH":"2026-03-05T14:00:01.999872","MEAN_MOTION":16.02061581,"ECCENTRICITY":0.00010956,"INCLINATION":97.2744,"RA_OF_ASC_NODE":74.55,"ARG_OF_PERICENTER":103.5402,"MEAN_ANOMALY":171.6441,"EPHEMERIS_TYPE":0,"CLASSIFICATION_TYPE":"U","NORAD_CAT_ID":67973,"ELEMENT_SET_NO":999,"REV_AT_EPOCH":253,"BSTAR":-0.0025838087,"MEAN_MOTION_DOT":-0.01463089,"MEAN_MOTION_DDOT":0.00067872232}]
